7P/Pons-Winnecke,e,22.2845,93.4493,172.2844,3.437758,0.1546290,0.63404098,29.4238,11/22.0/2002,2000,g 10.0,6.0
9P/Tempel 1,e,10.5361,68.9752,178.9128,3.119029,0.1789266,0.51776014,188.8495,11/22.0/2002,2000,g  5.5,10.0
10P/Tempel 2,e,12.0617,118.0674,194.8642,3.086618,0.1817522,0.53182920,211.4857,11/22.0/2002,2000,g  5.0,10.0
15P/Finlay,e,3.6737,41.8886,323.7294,3.576189,0.1457382,0.71093226,41.9286,11/22.0/2002,2000,g 12.0,4.0
26P/Grigg-Skjellerup,e,22.3473,211.7398,1.6241,3.043575,0.1856214,0.63270902,358.5669,11/22.0/2002,2000,g 12.0,16.0
30P/Reinmuth 1,e,8.1307,119.7568,13.2920,3.770913,0.1345967,0.50210934,355.6376,11/22.0/2002,2000,g  9.5,6.0
31P/Schwassmann-Wachmann 2,e,4.5501,114.1964,18.3421,4.229501,0.1133106,0.19409673,34.8870,11/22.0/2002,2000,g  5.0,8.0
39P/Oterma,e,1.9431,331.5867,56.3627,7.243062,0.0505616,0.24469428,358.4759,11/22.0/2002,2000,g  5.0,6.0
40P/Vaisala 1,e,11.5389,134.7371,47.2444,4.890162,0.0911421,0.63288002,321.0802,11/22.0/2002,2000,g  5.5,12.0
44P/Reinmuth 2,e,6.9652,296.0396,46.8268,3.554057,0.1471017,0.46613335,93.7878,11/22.0/2002,2000,g  8.3,6.0
46P/Wirtanen,e,11.7378,82.1728,356.3964,3.094562,0.1810528,0.65787318,15.7979,11/22.0/2002,2000,g  9.0,6.0
47P/Ashbrook-Jackson,e,12.5535,1.9465,350.1355,3.838812,0.1310415,0.39780872,89.3820,11/22.0/2002,2000,g  1.0,11.2
49P/Arend-Rigaux,e,18.3071,121.6555,330.6846,3.524925,0.1489290,0.61200685,237.0960,11/22.0/2002,2000,g 11.3,4.4
53P/Van Biesbroeck,e,6.6103,149.0061,134.1058,5.387617,0.0788150,0.55168088,334.6617,11/22.0/2002,2000,g  7.7,4.8
54P/de Vico-Swift-NEAT,e,6.0852,358.9661,2.0559,3.767232,0.1347940,0.43062032,15.3739,11/22.0/2002,2000,g 10.0,6.0
57P/du Toit-Neujmin-Delporte,e,2.8448,188.9285,115.2395,3.452462,0.1536423,0.49905614,17.4890,11/22.0/2002,2000,g 12.5,6.0
61P/Shajn-Schaldach,e,6.1088,166.6273,216.6915,3.821024,0.1319576,0.39222889,74.1002,11/22.0/2002,2000,g  6.0,10.0
65P/Gunn,e,10.3846,68.4161,196.3840,3.588993,0.1449590,0.31849182,335.2269,11/22.0/2002,2000,g  5.0,6.0
66P/du Toit,e,18.6974,22.2199,257.2259,6.002752,0.0670160,0.78764763,341.2871,11/22.0/2002,2000,g 12.0,3.6
67P/Churyumov-Gerasimenko,e,7.1201,50.9654,11.4556,3.508148,0.1499986,0.63162144,14.3529,11/22.0/2002,2000,g 11.0,4.0
74P/Smirnova-Chernykh,e,6.6512,77.1616,86.9204,4.168089,0.1158240,0.14904527,78.0146,11/22.0/2002,2000,g  5.0,6.0
75P/Kohoutek,e,5.9099,269.6877,175.7028,3.546698,0.1475597,0.49574490,93.3695,11/22.0/2002,2000,g 10.5,4.0
77P/Longmore,e,24.4029,14.9760,196.4497,3.598684,0.1443739,0.35822520,11.3000,11/22.0/2002,2000,g  7.0,8.0
79P/du Toit-Hartley,e,2.8945,307.9723,253.0651,3.030645,0.1868106,0.59415696,344.0625,11/22.0/2002,2000,g 16.0,4.0
81P/Wild 2,e,3.2401,136.1439,41.7885,3.447164,0.1539966,0.53875320,312.5686,11/22.0/2002,2000,g  7.0,6.0
82P/Gehrels 3,e,1.1267,239.5709,227.3718,4.133369,0.1172864,0.12292640,52.7461,11/22.0/2002,2000,g  5.0,8.0
88P/Howell,e,4.3806,56.9640,235.5284,3.121719,0.1786954,0.56072476,269.3058,11/22.0/2002,2000,g 11.0,6.0
90P/Gehrels 1,e,9.6155,13.5222,28.2161,6.040332,0.0663916,0.50900613,10.0881,11/22.0/2002,2000,g  8.5,6.0
91P/Russell 3,e,14.1146,248.1952,354.9553,3.880786,0.1289212,0.33271372,237.6751,11/22.0/2002,2000,g  7.5,6.0
92P/Sanguin,e,18.7647,182.3498,163.0501,5.368614,0.0792339,0.66333409,4.7496,11/22.0/2002,2000,g 12.0,6.0
94P/Russell 4,e,6.1869,70.9635,93.0114,3.511210,0.1498025,0.36474709,317.9796,11/22.0/2002,2000,g  9.0,6.0
97P/Metcalf-Brewington,e,18.0036,186.3026,229.5671,4.794865,0.0938728,0.45628626,55.0976,11/22.0/2002,2000,g  5.5,6.0
99P/Kowal 1,e,4.3512,28.5657,172.4146,6.095976,0.0654846,0.22540124,260.8656,11/22.0/2002,2000,g  4.5,6.0
100P/Hartley 1,e,25.6596,37.9132,181.4844,3.410127,0.1565122,0.41941843,317.9067,11/22.0/2002,2000,g  9.0,8.0
110P/Hartley 3,e,11.6907,287.7544,167.9137,3.613144,0.1435080,0.31386630,87.6554,11/22.0/2002,2000,g  1.0,12.0
116P/Wild 4,e,3.6158,21.0757,173.4029,3.474860,0.1521592,0.37558309,350.7834,11/22.0/2002,2000,g  2.5,10.0
117P/Helin-Roman-Alu 1,e,8.7713,63.4161,214.5429,4.150112,0.1165774,0.25671656,231.2311,11/22.0/2002,2000,g  2.5,8.0
118P/Shoemaker-Levy 4,e,8.4820,152.0395,302.0721,3.480524,0.1517879,0.42216623,324.0677,11/22.0/2002,2000,g 12.0,4.0
123P/West-Hartley,e,15.3478,46.6353,102.9342,3.857272,0.1301019,0.44813091,310.2700,11/22.0/2002,2000,g  4.0,10.0
124P/Mrkos,e,31.3521,1.3894,181.2479,3.207630,0.1715646,0.54263216,20.2387,11/22.0/2002,2000,g 13.5,2.8
128P/Shoemaker-Holt 1,e,4.3581,214.4858,210.6568,4.503374,0.1031329,0.32101840,188.3907,11/22.0/2002,2000,g  8.5,4.0
131P/Mueller 2,e,7.3497,214.2578,179.9051,3.684326,0.1393693,0.34263677,254.5494,11/22.0/2002,2000,g 11.0,4.0
136P/Mueller 3,e,9.4256,137.7274,224.3329,4.206471,0.1142424,0.28810048,154.0750,11/22.0/2002,2000,g 11.0,4.0
139P/Vaisala-Oterma,e,2.3331,242.4655,165.9127,4.504481,0.1030948,0.24669812,156.1841,11/22.0/2002,2000,g  9.5,4.0
152P/Helin-Lawrence,e,9.8714,92.0156,163.6946,4.492304,0.1035143,0.30768174,356.8459,11/22.0/2002,2000,g 11.5,4.0
153P/Ikeya-Zhang,e,28.1194,93.3704,34.6752,51.28924,0.0026833,0.99011161,0.0000,03/18.9828/2002,2000,g  7.0,4.0
154P/Brewington,e,18.0592,343.6441,48.0045,4.844646,0.0924296,0.67172889,351.7399,11/22.0/2002,2000,g  2.5,12.0
155P/Shoemaker 3,e,6.3864,97.2710,14.9283,6.637282,0.0576393,0.72676233,358.6815,11/22.0/2002,2000,g 10.0,4.8
C/1995 O1 (Hale-Bopp),e,89.4443,282.2315,130.7493,184.3037,0.0003939,0.99498354,0.0000,03/31.0026/1997,2000,g -2.0,4.0
P/1996 R2 (Lagerkvist),e,2.6024,40.2362,334.3116,3.792472,0.1334506,0.30867183,284.7954,11/22.0/2002,2000,g 11.5,4.0
C/1997 BA6 (Spacewatch),e,72.7606,317.6664,285.8857,2913,0.0000063,0.99882168,0.0000,11/27.6541/1999,2000,g 10.0,2.0
C/1997 J2 (Meunier-Dupouy),h,03/10.5989/1998,91.3021,148.9497,122.6355,1.000527,3.046920,2000,3.5,4.0
P/1997 T3 (Lagerkvist-Carsenty),e,4.8348,63.2112,334.4600,6.685328,0.0570191,0.36380107,97.9175,11/22.0/2002,2000,g 13.0,2.0
P/1997 V1 (Larsen),e,12.0875,234.8449,133.0186,4.936306,0.0898671,0.33011990,170.4432,11/22.0/2002,2000,g  9.0,4.0
P/1998 U3 (Jager),e,19.1513,303.4809,181.0408,6.082178,0.0657076,0.64899320,88.8473,11/22.0/2002,2000,g  6.5,4.0
P/1998 U4 (Spahr),e,31.4929,181.7243,252.0858,5.579600,0.0747824,0.30962048,101.9423,11/22.0/2002,2000,g  8.0,4.0
P/1998 VS24 (LINEAR),e,5.0282,159.1968,244.7489,4.505787,0.1030500,0.24206992,152.5824,11/22.0/2002,2000,g 13.0,2.0
C/1999 F1 (Catalina),e,92.0296,20.0009,255.1795,4949,0.0000028,0.99883069,0.0000,02/13.8791/2002,2000,g  9.5,2.0
C/1999 H3 (LINEAR),h,08/17.2551/1999,115.8052,332.7297,101.8770,1.001227,3.502476,2000,5.0,4.0
C/1999 J2 (Skiff),h,04/05.7746/2000,86.3760,50.0495,127.1057,1.003073,7.108423,2000,2.0,4.0
C/1999 J4 (LINEAR),p,11/17.6088/1999,118.9108,95.1591,3.780400,264.4841,2000,11.5,2.0
P/1999 J5 (LINEAR),e,13.7238,112.0191,131.6694,4.460542,0.1046219,0.16906360,135.2819,11/22.0/2002,2000,g  9.0,4.0
C/1999 K5 (LINEAR),h,07/04.1180/2000,89.4739,106.3830,241.6056,1.000534,3.262878,2000,6.0,4.0
C/1999 K8 (LINEAR),h,04/24.3071/2000,52.7052,195.3920,164.6888,1.000317,4.203230,2000,5.0,4.0
C/1999 N4 (LINEAR),h,05/22.6675/2000,156.9106,345.9377,90.3712,1.002752,5.502637,2000,6.0,4.0
C/1999 T1 (McNaught-Hartley),e,79.9899,182.4354,344.7624,3831,0.0000042,0.99969408,0.0000,12/13.4369/2000,2000,g  5.0,4.0
C/1999 T2 (LINEAR),h,11/24.2999/2000,110.9762,14.8826,104.6519,1.001682,3.037307,2000,6.0,4.0
C/1999 T3 (LINEAR),e,104.7558,223.5380,211.4012,1855,0.0000123,0.99710582,0.0000,09/02.2322/2000,2000,g  6.0,4.0
C/1999 U4 (Catalina-Skiff),h,10/28.7636/2001,51.9266,32.2824,77.5607,1.007165,4.916071,2000,4.5,4.0
P/1999 WJ7 (Korlevic),e,2.9797,290.5252,154.7288,4.634543,0.0987856,0.31558238,99.7484,11/22.0/2002,2000,g 14.5,2.0
C/1999 XS87 (LINEAR),e,14.8459,266.7365,151.4510,17.36084,0.0136254,0.83996012,16.4028,11/22.0/2002,2000,g 10.0,4.0
P/1999 XN120 (Catalina),e,5.0322,285.4548,161.9825,4.174855,0.1155426,0.21202079,107.9213,11/22.0/2002,2000,g 13.5,2.0
C/1999 Y1 (LINEAR),h,03/24.1860/2001,134.7922,188.9082,184.3057,1.000960,3.090829,2000,5.5,4.0
C/2000 A1 (Montani),h,07/16.6831/2000,24.5344,111.8267,14.4363,1.005984,9.747921,2000,3.5,4.0
C/2000 B4 (LINEAR),e,15.8992,0.6439,126.3159,18.07529,0.0128256,0.62190964,11.3850,11/22.0/2002,2000,g 11.5,2.0
C/2000 CT54 (LINEAR),e,49.2188,18.9554,272.6353,1697,0.0000141,0.99814013,0.0000,06/19.3978/2001,2000,g 11.0,2.0
C/2000 K1 (LINEAR),h,12/13.0244/1999,116.7889,260.1866,15.6782,1.000115,6.272084,2000,4.0,4.0
C/2000 O1 (Koehn),h,01/29.1600/2000,148.1020,88.8931,55.2842,1.001639,5.924777,2000,6.0,4.0
C/2000 OF8 (Spacewatch),h,08/06.5695/2001,151.9287,117.2007,256.3592,1.008562,2.171345,2000,9.5,4.0
C/2000 SV74 (LINEAR),h,04/30.5482/2002,75.2372,24.1863,76.2427,1.004738,3.541700,2000,5.5,4.0
C/2000 WM1 (LINEAR),h,01/22.6789/2002,72.5418,237.8866,276.7699,1.000280,0.555266,2000,7.5,4.0
C/2000 Y1 (Tubbiolo),h,02/03.4555/2001,137.9772,239.4008,181.8183,1.001811,7.976736,2000,11.0,2.0
P/2000 Y3 (Scotti),e,2.2523,354.9324,88.1512,5.024898,0.0875010,0.19506780,66.1593,11/22.0/2002,2000,g  9.0,4.0
C/2001 B2 (NEAT),h,09/01.9931/2000,150.6169,145.0998,304.8496,1.000835,5.312623,2000,4.0,4.0
C/2001 C1 (LINEAR),e,68.9461,33.7030,219.9388,105939,0.0000000,0.99995182,0.0000,03/28.2889/2002,2000,g  6.0,4.0
P/2001 F1 (NEAT),e,19.0855,92.8384,80.8118,6.459336,0.0600374,0.35697692,43.7781,11/22.0/2002,2000,g  8.5,4.0
C/2001 G1 (LONEOS),h,10/09.4049/2001,45.3506,203.8919,343.2896,1.003766,8.235914,2000,3.5,4.0
C/2001 HT50 (LINEAR-NEAT),e,163.2148,42.8562,324.0151,1665,0.0000145,0.99832348,0.0000,07/08.9847/2003,2000,g  4.5,4.0
C/2001 K3 (Skiff),e,52.0269,289.8501,3.4077,1634,0.0000149,0.99812759,0.0000,04/22.6781/2001,2000,g  8.5,4.0
C/2001 K5 (LINEAR),e,72.5925,237.4607,47.0540,10142,0.0000010,0.99948881,0.0000,10/11.7525/2002,2000,g  4.0,4.0
P/2001 MD7 (LINEAR),e,13.5304,129.1648,244.8227,3.974818,0.1243736,0.68486103,44.3624,11/22.0/2002,2000,g 12.0,4.0
C/2001 N2 (LINEAR),h,08/19.6456/2002,138.5408,52.8073,151.8915,1.000967,2.668606,2000,7.5,4.0
